{"fetched_at":"2026-07-21T17:53:07.094Z","source":"https://celestrak.org/NORAD/elements/gp.php?GROUP=planet&FORMAT=JSON","constellation":"superdove","records":[{"OBJECT_NAME":"FLOCK 4Q-16","OBJECT_ID":"2023-174R","EPOCH":"2026-07-20T19:17:51.531360","CLASSIFICATION_TYPE":"U","MEAN_MOTION":15.50530408,"ECCENTRICITY":0.00065589,"INCLINATION":97.3812,"RA_OF_ASC_NODE":290.7236,"ARG_OF_PERICENTER":60.7825,"MEAN_ANOMALY":299.4082,"EPHEMERIS_TYPE":0,"NORAD_CAT_ID":58271,"ELEMENT_SET_NO":999,"REV_AT_EPOCH":15078,"BSTAR":0.00026679302,"MEAN_MOTION_DOT":0.00015158,"MEAN_MOTION_DDOT":0},{"OBJECT_NAME":"FLOCK 4Q-11","OBJECT_ID":"2023-174T","EPOCH":"2026-07-21T03:53:47.148000","CLASSIFICATION_TYPE":"U","MEAN_MOTION":15.51061399,"ECCENTRICITY":0.00059263,"INCLINATION":97.3846,"RA_OF_ASC_NODE":291.7336,"ARG_OF_PERICENTER":53.0713,"MEAN_ANOMALY":307.1081,"EPHEMERIS_TYPE":0,"NORAD_CAT_ID":58273,"ELEMENT_SET_NO":999,"REV_AT_EPOCH":15085,"BSTAR":0.0003178715,"MEAN_MOTION_DOT":0.00018426,"MEAN_MOTION_DDOT":0},{"OBJECT_NAME":"FLOCK 4Q-28","OBJECT_ID":"2023-174AA","EPOCH":"2026-07-20T19:21:58.349376","CLASSIFICATION_TYPE":"U","MEAN_MOTION":15.56981346,"ECCENTRICITY":0.00043052,"INCLINATION":97.3871,"RA_OF_ASC_NODE":294.158,"ARG_OF_PERICENTER":45.872,"MEAN_ANOMALY":314.2889,"EPHEMERIS_TYPE":0,"NORAD_CAT_ID":58280,"ELEMENT_SET_NO":999,"REV_AT_EPOCH":15097,"BSTAR":0.00030554769,"MEAN_MOTION_DOT":0.00021964,"MEAN_MOTION_DDOT":0},{"OBJECT_NAME":"FLOCK 4Q-27","OBJECT_ID":"2023-174AC","EPOCH":"2026-07-21T01:33:38.532384","CLASSIFICATION_TYPE":"U","MEAN_MOTION":15.57209342,"ECCENTRICITY":0.00034472,"INCLINATION":97.3801,"RA_OF_ASC_NODE":293.8279,"ARG_OF_PERICENTER":49.9494,"MEAN_ANOMALY":310.2063,"EPHEMERIS_TYPE":0,"NORAD_CAT_ID":58282,"ELEMENT_SET_NO":999,"REV_AT_EPOCH":15102,"BSTAR":0.00037282745,"MEAN_MOTION_DOT":0.00027065,"MEAN_MOTION_DDOT":0},{"OBJECT_NAME":"FLOCK 4Q-7","OBJECT_ID":"2023-174BQ","EPOCH":"2026-07-20T05:54:56.009376","CLASSIFICATION_TYPE":"U","MEAN_MOTION":15.57581247,"ECCENTRICITY":0.00041344,"INCLINATION":97.39,"RA_OF_ASC_NODE":293.9103,"ARG_OF_PERICENTER":24.0637,"MEAN_ANOMALY":336.0811,"EPHEMERIS_TYPE":0,"NORAD_CAT_ID":58318,"ELEMENT_SET_NO":999,"REV_AT_EPOCH":15089,"BSTAR":0.00028494733,"MEAN_MOTION_DOT":0.00020936,"MEAN_MOTION_DDOT":0},{"OBJECT_NAME":"FLOCK 4Q-2","OBJECT_ID":"2023-174BS","EPOCH":"2026-07-21T06:37:58.056096","CLASSIFICATION_TYPE":"U","MEAN_MOTION":15.51022637,"ECCENTRICITY":0.00041614,"INCLINATION":97.3836,"RA_OF_ASC_NODE":291.5617,"ARG_OF_PERICENTER":31.3652,"MEAN_ANOMALY":328.7848,"EPHEMERIS_TYPE":0,"NORAD_CAT_ID":58320,"ELEMENT_SET_NO":999,"REV_AT_EPOCH":15088,"BSTAR":0.00033794928,"MEAN_MOTION_DOT":0.00019565,"MEAN_MOTION_DDOT":0},{"OBJECT_NAME":"FLOCK 4Q-9","OBJECT_ID":"2023-174BU","EPOCH":"2026-07-21T03:53:17.238912","CLASSIFICATION_TYPE":"U","MEAN_MOTION":15.51562392,"ECCENTRICITY":0.00050005,"INCLINATION":97.3841,"RA_OF_ASC_NODE":291.5619,"ARG_OF_PERICENTER":30.098,"MEAN_ANOMALY":330.0559,"EPHEMERIS_TYPE":0,"NORAD_CAT_ID":58322,"ELEMENT_SET_NO":999,"REV_AT_EPOCH":15085,"BSTAR":0.00038528849,"MEAN_MOTION_DOT":0.00022765,"MEAN_MOTION_DDOT":0},{"OBJECT_NAME":"FLOCK 4Q-4","OBJECT_ID":"2023-174BZ","EPOCH":"2026-07-20T23:43:16.298976","CLASSIFICATION_TYPE":"U","MEAN_MOTION":15.50032509,"ECCENTRICITY":0.00053215,"INCLINATION":97.382,"RA_OF_ASC_NODE":290.4833,"ARG_OF_PERICENTER":58.6352,"MEAN_ANOMALY":301.542,"EPHEMERIS_TYPE":0,"NORAD_CAT_ID":58327,"ELEMENT_SET_NO":999,"REV_AT_EPOCH":15079,"BSTAR":0.00032323314,"MEAN_MOTION_DOT":0.00018065,"MEAN_MOTION_DDOT":0},{"OBJECT_NAME":"FLOCK 4Q-13","OBJECT_ID":"2023-174CA","EPOCH":"2026-07-21T05:16:37.714080","CLASSIFICATION_TYPE":"U","MEAN_MOTION":15.53065324,"ECCENTRICITY":0.00053657,"INCLINATION":97.3995,"RA_OF_ASC_NODE":294.0673,"ARG_OF_PERICENTER":36.7954,"MEAN_ANOMALY":323.3666,"EPHEMERIS_TYPE":0,"NORAD_CAT_ID":58328,"ELEMENT_SET_NO":999,"REV_AT_EPOCH":15095,"BSTAR":0.00030426043,"MEAN_MOTION_DOT":0.00018945,"MEAN_MOTION_DDOT":0},{"OBJECT_NAME":"FLOCK 4BE-18","OBJECT_ID":"2024-149N","EPOCH":"2026-07-21T03:23:11.980032","CLASSIFICATION_TYPE":"U","MEAN_MOTION":15.42841951,"ECCENTRICITY":0.00054117,"INCLINATION":97.3716,"RA_OF_ASC_NODE":286.2495,"ARG_OF_PERICENTER":129.1327,"MEAN_ANOMALY":231.0402,"EPHEMERIS_TYPE":0,"NORAD_CAT_ID":60480,"ELEMENT_SET_NO":999,"REV_AT_EPOCH":10754,"BSTAR":0.00031494658,"MEAN_MOTION_DOT":0.00013733,"MEAN_MOTION_DDOT":0},{"OBJECT_NAME":"FLOCK 4BE-7","OBJECT_ID":"2024-149P","EPOCH":"2026-07-20T23:37:22.503072","CLASSIFICATION_TYPE":"U","MEAN_MOTION":15.41637084,"ECCENTRICITY":0.00045122,"INCLINATION":97.3744,"RA_OF_ASC_NODE":285.3725,"ARG_OF_PERICENTER":134.5172,"MEAN_ANOMALY":225.6444,"EPHEMERIS_TYPE":0,"NORAD_CAT_ID":60481,"ELEMENT_SET_NO":999,"REV_AT_EPOCH":10745,"BSTAR":0.00045877215,"MEAN_MOTION_DOT":0.00019264,"MEAN_MOTION_DDOT":0},{"OBJECT_NAME":"FLOCK 4BE-36","OBJECT_ID":"2024-149U","EPOCH":"2026-07-21T03:49:17.592960","CLASSIFICATION_TYPE":"U","MEAN_MOTION":15.43669412,"ECCENTRICITY":0.0005137,"INCLINATION":97.373,"RA_OF_ASC_NODE":287.0169,"ARG_OF_PERICENTER":136.3533,"MEAN_ANOMALY":223.8122,"EPHEMERIS_TYPE":0,"NORAD_CAT_ID":60486,"ELEMENT_SET_NO":999,"REV_AT_EPOCH":10759,"BSTAR":0.00029870915,"MEAN_MOTION_DOT":0.00013387,"MEAN_MOTION_DDOT":0},{"OBJECT_NAME":"FLOCK 4BE-25","OBJECT_ID":"2024-149V","EPOCH":"2026-07-21T03:39:04.275648","CLASSIFICATION_TYPE":"U","MEAN_MOTION":15.39647144,"ECCENTRICITY":0.00040131,"INCLINATION":97.3782,"RA_OF_ASC_NODE":285.5516,"ARG_OF_PERICENTER":129.8896,"MEAN_ANOMALY":230.2703,"EPHEMERIS_TYPE":0,"NORAD_CAT_ID":60487,"ELEMENT_SET_NO":999,"REV_AT_EPOCH":10746,"BSTAR":0.00026144391,"MEAN_MOTION_DOT":0.00010231,"MEAN_MOTION_DDOT":0},{"OBJECT_NAME":"FLOCK 4BE-31","OBJECT_ID":"2024-149W","EPOCH":"2026-07-21T03:45:43.866144","CLASSIFICATION_TYPE":"U","MEAN_MOTION":15.45310908,"ECCENTRICITY":0.00041069,"INCLINATION":97.3786,"RA_OF_ASC_NODE":287.9764,"ARG_OF_PERICENTER":136.0348,"MEAN_ANOMALY":224.1229,"EPHEMERIS_TYPE":0,"NORAD_CAT_ID":60488,"ELEMENT_SET_NO":999,"REV_AT_EPOCH":10762,"BSTAR":0.00032977536,"MEAN_MOTION_DOT":0.00015638,"MEAN_MOTION_DDOT":0},{"OBJECT_NAME":"FLOCK 4BE-20","OBJECT_ID":"2024-149X","EPOCH":"2026-07-20T05:19:20.854560","CLASSIFICATION_TYPE":"U","MEAN_MOTION":15.38888737,"ECCENTRICITY":0.00053423,"INCLINATION":97.3681,"RA_OF_ASC_NODE":283.4099,"ARG_OF_PERICENTER":139.6915,"MEAN_ANOMALY":220.4727,"EPHEMERIS_TYPE":0,"NORAD_CAT_ID":60489,"ELEMENT_SET_NO":999,"REV_AT_EPOCH":10729,"BSTAR":0.00018300189,"MEAN_MOTION_DOT":0.00006959,"MEAN_MOTION_DDOT":0},{"OBJECT_NAME":"FLOCK 4BE-23","OBJECT_ID":"2024-149Y","EPOCH":"2026-07-21T04:43:19.439328","CLASSIFICATION_TYPE":"U","MEAN_MOTION":15.38466373,"ECCENTRICITY":0.00050602,"INCLINATION":97.3765,"RA_OF_ASC_NODE":284.7833,"ARG_OF_PERICENTER":140.5506,"MEAN_ANOMALY":219.6109,"EPHEMERIS_TYPE":0,"NORAD_CAT_ID":60490,"ELEMENT_SET_NO":999,"REV_AT_EPOCH":10742,"BSTAR":0.00027665307,"MEAN_MOTION_DOT":0.00010422,"MEAN_MOTION_DDOT":0}]}
