FLOCK 4Q-16             
1 58271U 23174R   26201.80406865  .00015158  00000+0  26679-3 0  9990
2 58271  97.3812 290.7236 0006558  60.7825 299.4082 15.50530408150782
FLOCK 4Q-11             
1 58273U 23174T   26202.16235125  .00018426  00000+0  31787-3 0  9998
2 58273  97.3846 291.7336 0005926  53.0713 307.1081 15.51061399150855
FLOCK 4Q-28             
1 58280U 23174AA  26201.80692534  .00021964  00000+0  30555-3 0  9990
2 58280  97.3871 294.1580 0004305  45.8720 314.2889 15.56981346150972
FLOCK 4Q-27             
1 58282U 23174AC  26202.06502931  .00027065  00000+0  37283-3 0  9995
2 58282  97.3801 293.8279 0003447  49.9494 310.2063 15.57209342151024
FLOCK 4Q-7              
1 58318U 23174BQ  26201.24648159  .00020936  00000+0  28495-3 0  9992
2 58318  97.3900 293.9103 0004134  24.0637 336.0811 15.57581247150896
FLOCK 4Q-2              
1 58320U 23174BS  26202.27636639  .00019565  00000+0  33795-3 0  9994
2 58320  97.3836 291.5617 0004161  31.3652 328.7848 15.51022637150883
FLOCK 4Q-9              
1 58322U 23174BU  26202.16200508  .00022765  00000+0  38529-3 0  9992
2 58322  97.3841 291.5619 0005000  30.0980 330.0559 15.51562392150855
FLOCK 4Q-4              
1 58327U 23174BZ  26201.98838309  .00018065  00000+0  32323-3 0  9996
2 58327  97.3820 290.4833 0005321  58.6352 301.5420 15.50032509150792
FLOCK 4Q-13             
1 58328U 23174CA  26202.21988095  .00018945  00000+0  30426-3 0  9991
2 58328  97.3995 294.0673 0005365  36.7954 323.3666 15.53065324150957
FLOCK 4BE-18            
1 60480U 24149N   26202.14111088  .00013733  00000+0  31495-3 0  9995
2 60480  97.3716 286.2495 0005411 129.1327 231.0402 15.42841951107544
FLOCK 4BE-7             
1 60481U 24149P   26201.98428823  .00019264  00000+0  45877-3 0  9999
2 60481  97.3744 285.3725 0004512 134.5172 225.6444 15.41637084107455
FLOCK 4BE-36            
1 60486U 24149U   26202.15923140  .00013387  00000+0  29871-3 0  9992
2 60486  97.3730 287.0169 0005137 136.3533 223.8122 15.43669412107591
FLOCK 4BE-25            
1 60487U 24149V   26202.15213282  .00010231  00000+0  26144-3 0  9997
2 60487  97.3782 285.5516 0004013 129.8896 230.2703 15.39647144107465
FLOCK 4BE-31            
1 60488U 24149W   26202.15675771  .00015638  00000+0  32978-3 0  9991
2 60488  97.3786 287.9764 0004106 136.0348 224.1229 15.45310908107621
FLOCK 4BE-20            
1 60489U 24149X   26201.22176915  .00006959  00000+0  18300-3 0  9994
2 60489  97.3681 283.4099 0005342 139.6915 220.4727 15.38888737107297
FLOCK 4BE-23            
1 60490U 24149Y   26202.19675277  .00010422  00000+0  27665-3 0  9992
2 60490  97.3765 284.7833 0005060 140.5506 219.6109 15.38466373107423
